NORAD_CAT_ID,OBJECT_NAME,OBJECT_TYPE,EPOCH,MEAN_MOTION,ECCENTRICITY,INCLINATION,RA_OF_ASC_NODE,ARG_OF_PERICENTER,MEAN_ANOMALY,BSTAR,MEAN_MOTION_DOT,MEAN_MOTION_DDOT,TLE_LINE0,TLE_LINE1,TLE_LINE2,SEMIMAJOR_AXIS,PERIOD,APOGEE,PERIGEE,DECAYED
51127.0,STARLINK-3370,PAYLOAD,2023-08-10 16:30:41,15.08845697,0.0001097,53.2167,207.9377,90.6024,269.5094,-6.7062e-05,-1.355e-05,0.0,0 STARLINK-3370,1 51127U 22005Z   23222.68798281 -.00001355  00000-0 -67062-4 0  9996,2 51127  53.2167 207.9377 0001097  90.6024 269.5094 15.08845697 87648,6917.863,95.437,540.487,538.969,0.0
51127.0,STARLINK-3370,PAYLOAD,2023-08-10 22:52:14,15.08835171,0.0001149,53.2165,206.749,94.4847,265.6277,1.0329e-05,-1.23e-06,0.0,0 STARLINK-3370,1 51127U 22005Z   23222.95294821 -.00000123  00000-0  10329-4 0  9992,2 51127  53.2165 206.7490 0001149  94.4847 265.6277 15.08835171 87682,6917.895,95.438,540.555,538.965,0.0
51127.0,STARLINK-3370,PAYLOAD,2023-08-11 08:24:33,15.08842279,0.0001062,53.2148,204.965,98.77,261.3413,3.4107e-05,2.55e-06,0.0,0 STARLINK-3370,1 51127U 22005Z   23223.35038256  .00000255  00000-0  34107-4 0  9990,2 51127  53.2148 204.9650 0001062  98.7700 261.3413 15.08842279 87749,6917.873,95.437,540.473,539.004,0.0
51127.0,STARLINK-3370,PAYLOAD,2023-08-11 22:43:01,15.08834253,0.0001245,53.2157,202.2886,94.0649,266.0485,2.9972e-05,1.89e-06,0.0,0 STARLINK-3370,1 51127U 22005Z   23223.94654927  .00000189  00000-0  29972-4 0  9994,2 51127  53.2157 202.2886 0001245  94.0649 266.0485 15.08834253 87839,6917.898,95.438,540.624,538.902,0.0
51127.0,STARLINK-3370,PAYLOAD,2023-08-13 06:30:44,15.08842227,0.000121,53.2167,196.3417,91.7512,268.3619,7.555e-06,-1.68e-06,0.0,0 STARLINK-3370,1 51127U 22005Z   23225.27134688 -.00000168  00000-0  75550-5 0  9991,2 51127  53.2167 196.3417 0001210  91.7512 268.3619 15.08842227 88035,6917.874,95.437,540.576,538.902,0.0
51127.0,STARLINK-3370,PAYLOAD,2023-08-15 01:26:09,15.08835392,0.0001182,53.2179,188.3163,103.046,257.0665,4.2003e-05,3.81e-06,0.0,0 STARLINK-3370,1 51127U 22005Z   23227.05983106  .00000381  00000-0  42003-4 0  9998,2 51127  53.2179 188.3163 0001182 103.0460 257.0665 15.08835392 88305,6917.894,95.438,540.577,538.942,0.0
51127.0,STARLINK-3370,PAYLOAD,2023-08-16 06:03:05,15.08839474,0.0001143,53.2177,182.9636,99.5258,260.5863,6.2356e-05,7.05e-06,0.0,0 STARLINK-3370,1 51127U 22005Z   23228.25215090  .00000705  00000-0  62356-4 0  9994,2 51127  53.2177 182.9636 0001143  99.5258 260.5863 15.08839474 88482,6917.882,95.438,540.538,538.956,0.0
51127.0,STARLINK-3370,PAYLOAD,2023-08-17 07:29:15,15.08843865,0.0001098,53.2168,178.2031,89.6046,270.5072,8.2201e-05,1.021e-05,0.0,0 STARLINK-3370,1 51127U 22005Z   23229.31198852  .00001021  00000-0  82201-4 0  9991,2 51127  53.2168 178.2031 0001098  89.6046 270.5072 15.08843865 88643,6917.869,95.437,540.493,538.974,0.0
51127.0,STARLINK-3370,PAYLOAD,2023-08-18 20:03:08,15.08840035,0.0001029,53.216,171.3632,100.7465,259.3642,-4.25e-05,-9.64e-06,0.0,0 STARLINK-3370,1 51127U 22005Z   23230.83551475 -.00000964  00000-0 -42500-4 0  9999,2 51127  53.2160 171.3632 0001029 100.7465 259.3642 15.08840035 88879,6917.88,95.438,540.457,539.033,0.0
51127.0,STARLINK-3370,PAYLOAD,2023-08-19 05:35:26,15.08845332,0.0001066,53.2151,169.58,102.6037,257.5074,-2.5193e-06,-3.28e-06,0.0,0 STARLINK-3370,1 51127U 22005Z   23231.23294884 -.00000328  00000-0 -25193-5 0  9996,2 51127  53.2151 169.5800 0001066 102.6037 257.5074 15.08845332 88933,6917.864,95.437,540.467,538.992,0.0
51127.0,STARLINK-3370,PAYLOAD,2023-08-20 02:15:28,15.08832063,9.33e-05,53.2153,165.7139,85.4405,274.6694,0.00011084,1.476e-05,0.0,0 STARLINK-3370,1 51127U 22005Z   23232.09407491  .00001476  00000-0  11084-3 0  9996,2 51127  53.2153 165.7139 0000933  85.4405 274.6694 15.08832063 89067,6917.905,95.438,540.415,539.124,0.0
51127.0,STARLINK-3370,PAYLOAD,2023-08-20 05:26:14,15.08842064,0.0001191,53.2153,165.1189,89.9365,270.1763,2.2568e-06,-2.52e-06,0.0,0 STARLINK-3370,1 51127U 22005Z   23232.22655311 -.00000252  00000-0  22568-5 0  9990,2 51127  53.2153 165.1189 0001191  89.9365 270.1763 15.08842064 89089,6917.874,95.437,540.563,538.915,0.0
51127.0,STARLINK-3370,PAYLOAD,2023-08-21 19:35:30,15.08834545,0.0001636,53.2175,157.9809,92.9056,267.2124,1.1651e-05,-1.03e-06,0.0,0 STARLINK-3370,1 51127U 22005Z   23233.81632058 -.00000103  00000-0  11651-4 0  9994,2 51127  53.2175 157.9809 0001636  92.9056 267.2124 15.08834545 89326,6917.897,95.438,540.894,538.63,0.0
51127.0,STARLINK-3370,PAYLOAD,2023-08-23 00:12:26,15.08837482,0.0001422,53.2179,152.6295,86.303,273.8125,-2.4816e-05,-6.83e-06,0.0,0 STARLINK-3370,1 51127U 22005Z   23235.00864435 -.00000683  00000-0 -24816-4 0  9994,2 51127  53.2179 152.6295 0001422  86.3030 273.8125 15.08837482 89500,6917.888,95.438,540.737,538.769,0.0
51127.0,STARLINK-3370,PAYLOAD,2023-08-24 03:14:00,15.08838451,0.0001363,53.2177,147.5756,89.9317,270.1831,0.00011526,1.547e-05,0.0,0 STARLINK-3370,1 51127U 22005Z   23236.13472259  .00001547  00000-0  11526-3 0  9999,2 51127  53.2177 147.5756 0001363  89.9317 270.1831 15.08838451 88559,6917.885,95.438,540.693,538.807,0.0
51127.0,STARLINK-3370,PAYLOAD,2023-08-24 23:54:01,15.08828254,0.000157,53.2178,143.7104,80.4585,279.6585,0.00022367,3.272e-05,0.0,0 STARLINK-3370,1 51127U 22005Z   23236.99584657  .00003272  00000-0  22367-3 0  9991,2 51127  53.2178 143.7104 0001570  80.4585 279.6585 15.08828254 89807,6917.916,95.438,540.867,538.695,0.0
51127.0,STARLINK-3370,PAYLOAD,2023-08-25 03:04:47,15.08844882,0.0001439,53.2179,143.1138,91.2057,268.91,5.0558e-05,5.17e-06,0.0,0 STARLINK-3370,1 51127U 22005Z   23237.12832178  .00000517  00000-0  50558-4 0  9994,2 51127  53.2179 143.1138 0001439  91.2057 268.9100 15.08844882 89828,6917.865,95.437,540.726,538.735,0.0
51127.0,STARLINK-3370,PAYLOAD,2023-08-26 02:55:33,15.08845943,0.0001398,53.2176,138.6534,91.9258,268.1894,8.0419e-05,9.92e-06,0.0,0 STARLINK-3370,1 51127U 22005Z   23238.12191896  .00000992  00000-0  80419-4 0  9996,2 51127  53.2176 138.6534 0001398  91.9258 268.1894 15.08845943 88851,6917.862,95.437,540.694,538.76,0.0
51127.0,STARLINK-3370,PAYLOAD,2023-08-26 17:14:02,15.08835872,0.0001413,53.2179,135.9749,101.1628,258.9523,-2.1986e-05,-6.38e-06,0.0,0 STARLINK-3370,1 51127U 22005Z   23238.71808837 -.00000638  00000-0 -21986-4 0  9994,2 51127  53.2179 135.9749 0001413 101.1628 258.9523 15.08835872 90067,6917.893,95.438,540.736,538.781,0.0
51127.0,STARLINK-3370,PAYLOAD,2023-08-27 02:46:21,15.08840432,0.0001502,53.2176,134.1931,85.8916,274.2248,1.5553e-05,-4e-07,0.0,0 STARLINK-3370,1 51127U 22005Z   23239.11552547 -.00000040  00000-0  15553-4 0  9992,2 51127  53.2176 134.1931 0001502  85.8916 274.2248 15.08840432 90125,6917.879,95.438,540.783,538.705,0.0
51127.0,STARLINK-3370,PAYLOAD,2023-08-28 02:37:07,15.08848801,0.0001449,53.217,129.7325,100.5001,259.6154,1.0453e-05,-1.22e-06,0.0,0 STARLINK-3370,1 51127U 22005Z   23240.10911880 -.00000122  00000-0  10453-4 0  9997,2 51127  53.2170 129.7325 0001449 100.5001 259.6154 15.08848801 90273,6917.853,95.437,540.721,538.716,0.0
51127.0,STARLINK-3370,PAYLOAD,2023-08-28 20:06:23,15.08837242,0.000141,53.217,126.4609,93.9364,266.1789,3.2282e-05,2.26e-06,0.0,0 STARLINK-3370,1 51127U 22005Z   23240.83776632  .00000226  00000-0  32282-4 0  9999,2 51127  53.2170 126.4609 0001410  93.9364 266.1789 15.08837242 89268,6917.889,95.438,540.729,538.778,0.0
51127.0,STARLINK-3370,PAYLOAD,2023-08-29 00:52:32,15.088405,0.0001393,53.2171,125.5697,84.7949,275.3202,6.2652e-05,7.09e-06,0.0,0 STARLINK-3370,1 51127U 22005Z   23241.03648392  .00000709  00000-0  62652-4 0  9993,2 51127  53.2171 125.5697 0001393  84.7949 275.3202 15.08840500 90415,6917.879,95.438,540.708,538.78,0.0
51127.0,STARLINK-3370,PAYLOAD,2023-08-29 08:49:28,15.08835982,0.0001422,53.2178,124.0825,82.1492,277.9661,6.9106e-06,-1.78e-06,0.0,0 STARLINK-3370,1 51127U 22005Z   23241.36768887 -.00000178  00000-0  69106-5 0  9994,2 51127  53.2178 124.0825 0001422  82.1492 277.9661 15.08835982 90467,6917.893,95.438,540.741,538.774,0.0
51127.0,STARLINK-3370,PAYLOAD,2023-08-29 21:32:33,15.08841168,0.0001342,53.2174,121.7061,86.2858,273.8288,-6.2349e-05,-1.28e-05,0.0,0 STARLINK-3370,1 51127U 22005Z   23241.89760977 -.00001280  00000-0 -62349-4 0  9991,2 51127  53.2174 121.7061 0001342  86.2858 273.8288 15.08841168 89428,6917.877,95.437,540.67,538.813,0.0
51127.0,STARLINK-3370,PAYLOAD,2023-08-30 08:40:15,15.0883887,0.0001499,53.2172,119.624,79.8434,280.2727,-2.4448e-05,-6.77e-06,0.0,0 STARLINK-3370,1 51127U 22005Z   23242.36128958 -.00000677  00000-0 -24448-4 0  9998,2 51127  53.2172 119.6240 0001499  79.8434 280.2727 15.08838870 89495,6917.884,95.438,540.786,538.712,0.0
51127.0,STARLINK-3370,PAYLOAD,2023-08-31 00:34:06,15.08845727,0.0001287,53.2172,116.6502,85.5781,274.5358,8.034e-05,9.91e-06,0.0,0 STARLINK-3370,1 51127U 22005Z   23243.02368446  .00000991  00000-0  80340-4 0  9990,2 51127  53.2172 116.6502 0001287  85.5781 274.5358 15.08845727 90719,6917.863,95.437,540.618,538.838,0.0
51127.0,STARLINK-3370,PAYLOAD,2023-09-01 02:00:19,15.08806228,4.85e-05,53.2164,111.8969,100.336,259.7686,-0.0002851,-4.818e-05,0.0,0 STARLINK-3370,1 51127U 22005Z   23244.08355665 -.00004818  00000-0 -28510-3 0  9990,2 51127  53.2164 111.8969 0000485 100.3360 259.7686 15.08806228 90871,6917.984,95.44,540.184,539.513,0.0
51127.0,STARLINK-3370,PAYLOAD,2023-09-01 21:04:54,15.08833748,0.0001644,53.2175,108.3238,83.9515,276.1664,0.00026366,3.91e-05,0.0,0 STARLINK-3370,1 51127U 22005Z   23244.87841322  .00003910  00000-0  26366-3 0  9994,2 51127  53.2175 108.3238 0001644  83.9515 276.1664 15.08833748 89873,6917.899,95.438,540.902,538.627,0.0
51127.0,STARLINK-3370,PAYLOAD,2023-09-02 00:15:40,15.08844037,0.0001532,53.2181,107.729,82.5109,277.6058,0.00014221,1.976e-05,0.0,0 STARLINK-3370,1 51127U 22005Z   23245.01088712  .00001976  00000-0  14221-3 0  9994,2 51127  53.2181 107.7290 0001532  82.5109 277.6058 15.08844037 91016,6917.868,95.437,540.793,538.673,0.0
